GALAXY 25 (G-25)        
1 24812U 97026A   22341.16091227  .00000039  00000+0  00000+0 0  9991
2 24812   4.1191  81.9100 0010396 270.6553 207.1521  1.00120521 93463
INTELSAT 5 (IS-5)       
1 24916U 97046A   22352.48732713 -.00000041  00000+0  00000+0 0  9991
2 24916   7.6206  59.7601 0005779 193.0176 175.8682  1.00271716 92821
GALAXY 11 (G-11)        
1 26038U 99071A   22352.46024872 -.00000137  00000+0  00000+0 0  9992
2 26038   3.4872  85.3463 0001782 232.1590 202.1405  1.00271167 84274
INTELSAT 9 (IS-9)       
1 26451U 00043A   22352.31441269 -.00000266  00000+0  00000+0 0  9992
2 26451   7.6041  59.9385 0003654 202.0608 248.1147  1.00271670 31345
INTELSAT 1R (IS-1R)     
1 26608U 00072A   22352.42622576 -.00000114  00000+0  00000+0 0  9994
2 26608   4.8592  78.7300 0000093  12.0245 306.8020  1.00271588 28510
INTELSAT 10 (IS-10)     
1 26766U 01019A   22352.36469521  .00000057  00000+0  00000+0 0  9998
2 26766   6.0129  71.7742 0003989 194.1493 130.1346  1.00272812 32810
INTELSAT 901 (IS-901)   
1 26824U 01024A   22352.23306694 -.00000175  00000+0  00000+0 0  9998
2 26824   0.0228  57.3816 0000865 276.2777 169.5820  1.00269523 10182
INTELSAT 902 (IS-902)   
1 26900U 01039A   22352.44426764 -.00000256  00000+0  00000+0 0  9993
2 26900   2.8688  86.9592 0003555 192.6630 277.2373  1.00270150 77893
INTELSAT 904 (IS-904)   
1 27380U 02007A   22352.23315411 -.00000189  00000+0  00000+0 0  9990
2 27380   3.6958  83.9670 0003069 195.3607 221.9237  1.00270190 38967
DIRECTV 5 (TEMPO 1)     
1 27426U 02023A   22352.45577036 -.00000029  00000+0  00000+0 0  9999
2 27426   1.5937  91.0046 0003109 175.9101 234.0996  1.00271918 75324
INTELSAT 905 (IS-905)   
1 27438U 02027A   22352.44932321 -.00000159  00000+0  00000+0 0  9991
2 27438   3.5188  84.6816 0002609 179.9849 319.6514  1.00271432 75166
GALAXY 3C (G-3C)        
1 27445U 02030A   22352.45965076 -.00000125  00000+0  00000+0 0  9990
2 27445   0.4457  91.9207 0001260 226.4450 199.3337  1.00270794 75146
INTELSAT 906 (IS-906)   
1 27513U 02041A   22352.55396558  .00000040  00000+0  00000+0 0  9997
2 27513   2.5387  88.3669 0004839 174.8434  87.4899  1.00272370 74222
GALAXY 12 (G-12)        
1 27715U 03013B   22352.44016080  .00000083  00000+0  00000+0 0  9995
2 27715   3.7293  83.6243 0001807 193.5498 199.3235  1.00271993 39296
GALAXY 23 (G-23)        
1 27854U 03034A   22352.50188368  .00000040  00000+0  00000+0 0  9991
2 27854   0.0044  49.9841 0002806 212.6300 244.1603  1.00272432 70942
GALAXY 13 (HORIZONS-1)  
1 27954U 03044A   22352.31567192  .00000075  00000+0  00000+0 0  9996
2 27954   0.0122  56.3332 0000100 340.4572  36.7370  1.00271252 33767
INTELSAT 10-02          
1 28358U 04022A   22352.36160667  .00000016  00000+0  00000+0 0  9998
2 28358   0.0187  63.5241 0001256 245.4035 267.2320  1.00273033 67747
XM-3 (RHYTHM)           
1 28626U 05008A   22352.19679628 -.00000178  00000+0  00000+0 0  9994
2 28626   0.0181 139.5144 0001515  47.0073 245.9893  1.00267248 29816
DIRECTV 8               
1 28659U 05019A   22352.50223234  .00000028  00000+0  00000+0 0  9998
2 28659   0.0273  83.0802 0002986 183.1339 242.6563  1.00272539 64274
GALAXY 28 (G-28)        
1 28702U 05022A   22352.39985869 -.00000158  00000+0  00000+0 0  9992
2 28702   0.0121 357.0335 0002698 289.4408 215.4626  1.00272005 39185
GALAXY 14 (G-14)        
1 28790U 05030A   22352.24561872  .00000182  00000+0  00000+0 0  9992
2 28790   1.7257  90.2038 0001908 178.2876 299.6696  1.00271576 63509
GALAXY 15 (G-15)        
1 28884U 05041A   22352.50144785  .00000048  00000+0  00000+0 0  9998
2 28884   0.2819  92.5996 0004495 185.7968 226.0355  1.00311470 62815
SPACEWAY 2              
1 28903U 05046B   22352.37170789  .00000130  00000+0  00000+0 0  9995
2 28903   2.3230  86.2228 0000330 208.1923 147.4687  1.00266212 38539
GALAXY 16 (G-16)        
1 29236U 06023A   22352.33151307 -.00000100  00000+0  00000+0 0  9990
2 29236   0.0188  81.8094 0002611 188.2441 197.2261  1.00271925 60178
DIRECTV 9S              
1 29494U 06043A   22352.39288802 -.00000086  00000+0  00000+0 0  9998
2 29494   0.0166  37.8907 0002900 228.8438 220.4992  1.00271427 38589
XM-4 (BLUES)            
1 29520U 06049A   22352.19679625 -.00000178  00000+0  00000+0 0  9991
2 29520   0.0334 278.3726 0001841  47.0478 107.1249  1.00267823 38665
GALAXY 17 (G-17)        
1 31307U 07016B   22352.46190860 -.00000147  00000+0  00000+0 0  9997
2 31307   0.0218  34.1875 0003214 254.0437 234.1305  1.00272334 57002
DIRECTV 10              
1 31862U 07032A   22351.93164838 -.00000076  00000+0  00000+0 0  9999
2 31862   0.0315 179.9983 0000523  15.8335 123.3108  1.00269523 32788
SPACEWAY 3              
1 32018U 07036A   22352.33378025 -.00000125  00000+0  00000+0 0  9992
2 32018   0.6968  91.1764 0000537 350.8031  30.1669  1.00271427 33755
INTELSAT 11 (IS-11)     
1 32253U 07044B   22352.44566229 -.00000242  00000+0  00000+0 0  9999
2 32253   0.2546  93.9240 0003303 196.6918 273.8641  1.00270663 55725
HORIZONS-2              
1 32388U 07063B   22352.43956073 -.00000226  00000+0  00000+0 0  9990
2 32388   0.0133 321.1558 0002159 322.0537 248.2758  1.00271087 55010
DIRECTV 11              
1 32729U 08013A   22352.39439845 -.00000098  00000+0  00000+0 0  9990
2 32729   0.0360 139.4762 0000727 145.2063 205.1106  1.00268406 32796
GALAXY 18 (G-18)        
1 32951U 08024A   22352.50144785  .00000052  00000+0  00000+0 0  9997
2 32951   0.0020   6.6972 0002838 261.2336 236.6883  1.00271355 53286
INTELSAT 25 (IS-25)     
1 33153U 08034A   22352.44792858 -.00000197  00000+0  00000+0 0  9997
2 33153   0.0162 335.2118 0002817 290.9719 310.6165  1.00270838 52899
GALAXY 19 (G-19)        
1 33376U 08045A   22352.25281656 -.00000112  00000+0  00000+0 0  9991
2 33376   0.0030  79.9105 0002722 193.3841 167.5759  1.00271766 52096
FM-5                    
1 35493U 09034A   22352.18174350 -.00000174  00000+0  00000+0 0  9994
2 35493   0.0169 345.4218 0000461 185.0720 255.5886  1.00271543 49176
INTELSAT 14 (IS-14)     
1 36097U 09064A   22352.44522646 -.00000246  00000+0  00000+0 0  9992
2 36097   0.0132  45.8311 0002311 224.0616 292.4470  1.00270976 47891
INTELSAT 15 (IS-15)     
1 36106U 09067A   22352.54840853 -.00000158  00000+0  00000+0 0  9992
2 36106   0.0137 341.4026 0002195 284.4189 103.9064  1.00271721 28422
DIRECTV 12              
1 36131U 09075A   22352.32924953 -.00000075  00000+0  00000+0 0  9997
2 36131   0.0104 207.6178 0000300 173.8025  81.3036  1.00262496 33761
INTELSAT 16 (IS-16)     
1 36397U 10006A   22352.47479948 -.00000217  00000+0  00000+0 0  9990
2 36397   0.0122 337.4470 0001997 284.8129 279.5411  1.00271908 46853
XM-5                    
1 37185U 10053A   22352.38529990  .00000004  00000+0  00000+0 0  9994
2 37185   0.0197 351.3699 0000785 145.1825 333.9593  1.00271134 44681
INTELSAT 17 (IS-17)     
1 37238U 10065B   22352.55396558  .00000025  00000+0  00000+0 0  9990
2 37238   0.0110 294.5152 0002572 339.2277  78.8364  1.00271619 44128
INTELSAT NEW DAWN       
1 37392U 11016A   22352.46074184  .00000183  00000+0  00000+0 0  9991
2 37392   0.0358 132.3443 0000938 151.5180   1.8763  1.00273001 40488
INTELSAT 18 (IS-18)     
1 37834U 11056A   22352.45484385  .00000080  00000+0  00000+0 0  9999
2 37834   0.0220 340.7644 0001887 287.4474 162.5841  1.00272097 41009
INTELSAT 22 (IS-22)     
1 38098U 12011A   22352.55327115 -.00000031  00000+0  00000+0 0  9999
2 38098   0.0356  56.2423 0002467 208.3537  93.8104  1.00270520 39018
INTELSAT 19 (IS-19)     
1 38356U 12030A   22352.60025714 -.00000029  00000+0  00000+0 0  9990
2 38356   0.0034   8.9320 0003290 264.2220 196.1431  1.00272211 38718
INTELSAT 20 (IS-20)     
1 38740U 12043A   22352.29910354  .00000002  00000+0  00000+0 0  9999
2 38740   0.0076  66.9672 0003442 132.0127  64.0893  1.00270847 37944
INTELSAT 21 (IS-21)     
1 38749U 12045A   22352.42549322 -.00000258  00000+0  00000+0 0  9992
2 38749   0.0221  61.3702 0001840 200.1943 280.6548  1.00272450 37733
INTELSAT 23 (IS-23)     
1 38867U 12057A   22352.44348316 -.00000257  00000+0  00000+0 0  9997
2 38867   0.0010  35.9710 0000723 287.6739 230.0630  1.00271318 37146
FM-6                    
1 39360U 13058A   22352.32173321  .00000011  00000+0  00000+0 0  9994
2 39360   0.0035   2.5602 0000154 323.8458 120.1818  1.00267564 33265
INTELSAT 30 (IS-30)     
1 40271U 14062A   22352.15327104 -.00000124  00000+0  00000+0 0  9990
2 40271   0.0200 344.4379 0002304 123.2200 299.2259  1.00272318 29778
DIRECTV 14              
1 40333U 14078B   22352.39439838 -.00000098  00000+0  00000+0 0  9990
2 40333   0.0293  67.3937 0000189  80.7872 341.5611  1.00268487 29260
DIRECTV 15              
1 40663U 15026A   22351.45016062 -.00000077  00000+0  00000+0 0  9993
2 40663   0.0173  20.0845 0000219  14.0983 111.0787  1.00272170 27721
SKY MEXICO-1            
1 40664U 15026B   22352.47479948 -.00000207  00000+0  00000+0 0  9998
2 40664   0.0171  34.6422 0002089 239.9114 264.6893  1.00271686 27659
INTELSAT 34 (IS-34)     
1 40874U 15039A   22352.51487126 -.00000258  00000+0  00000+0 0  9993
2 40874   0.0011 292.9506 0000687 251.2381  32.7879  1.00272736 26814
INTELSAT 31 (IS-31)     
1 41581U 16035A   22352.00495406 -.00000124  00000+0  00000+0 0  9992
2 41581   0.0208 267.6308 0002186 292.7186 152.9881  1.00272351 23881
INTELSAT 36 (IS-36)     
1 41747U 16053A   22352.29910354  .00000002  00000+0  00000+0 0  9995
2 41747   0.0119 342.6077 0000892  30.7437 249.7281  1.00270987 23145
INTELSAT 33E (IS-33E)   
1 41748U 16053B   22352.55396558  .00000076  00000+0  00000+0 0  9990
2 41748   0.0197 309.0667 0001750 309.4194  88.0759  1.00271143 23413
INTELSAT 32E (IS-32E)   
1 41945U 17007B   22352.19077216 -.00000242  00000+0  00000+0 0  9992
2 41945   0.0180   6.6376 0000363 114.0265 351.6362  1.00269581 21431
INTELSAT 35E (IS-35E)   
1 42818U 17041A   22352.37479787 -.00000210  00000+0  00000+0 0  9994
2 42818   0.0133 308.9196 0001708 324.9550 273.5377  1.00274153 20012
INTELSAT 37E (IS-37E)   
1 42950U 17059A   22352.36924359 -.00000114  00000+0  00000+0 0  9992
2 42950   0.0212   6.6014 0002545 258.1319 297.1561  1.00270796 19260
AZERSPACE 2 (IS-38)     
1 43632U 18074A   22352.46326962  .00000164  00000+0  00000+0 0  9999
2 43632   0.0093 326.8654 0001225 304.5438  27.5529  1.00269873 15634
HORIZONS-3E             
1 43633U 18074B   22352.44126328 -.00000005  00000+0  00000+0 0  9997
2 43633   0.0374 151.0397 0001577 139.7716 124.0642  1.00265004 15536
AT&T T-16               
1 44333U 19034A   22352.39364630 -.00000088  00000+0  00000+0 0  9997
2 44333   0.0295  82.0203 0000283  73.5797 332.2457  1.00268417 12830
INTELSAT 39 (IS-39)     
1 44476U 19049B   22352.55396558  .00000060  00000+0  00000+0 0  9992
2 44476   0.0166 326.7993 0001112 173.8766 207.8552  1.00270822 12332
GALAXY 30 (G-30)        
1 46114U 20056C   22352.50109919  .00000064  00000+0  00000+0 0  9995
2 46114   0.0017 358.7906 0001973 270.0364 233.6813  1.00272633  8600
GALAXY 33 (G-33)        
1 54026U 22128A   22352.46527312  .00000106  00000+0  00000+0 0  9991
2 54026   0.0144 358.5239 0001793 264.3555 218.6833  1.00272498   951
GALAXY 34 (G-34)        
1 54027U 22128B   22352.11762937  .00000086  00000+0  00000+0 0  9995
2 54027   0.0151  56.7256 0001464  37.4846 265.8246  1.00273161  1112
GALAXY 31 (G-31)        
1 54243U 22153A   22351.99414563  .00000158  00000+0  00000+0 0  9997
2 54243   0.0628 114.8807 0002331 193.9049 346.7675  1.00270687   334
GALAXY 32 (G-32)        
1 54244U 22153B   22352.42952073  .00000158  00000+0  00000+0 0  9990
2 54244   0.0118  17.4283 0002317 262.5598 172.6351  1.00271546   355
GALAXY 35 (G-35)        
1 54741U 22170A   22350.18729448 -.00000213  00000+0  00000+0 0  9993
2 54741   3.2871 218.7269 5571717 178.9031 316.2064  1.94785585    49
GALAXY 36 (G-36)        
1 54742U 22170B   22350.43859110 -.00000334  00000+0  00000+0 0  9996
2 54742   3.4316 218.5973 5690531 178.9831 147.4403  1.97380797    51
